[{"OBJECT_NAME":"STARLINK-2612","OBJECT_ID":"2021-038AC","EPOCH":"2026-03-09T22:16:21.352224","MEAN_MOTION":15.30185006,"ECCENTRICITY":0.00012211,"INCLINATION":53.1599,"RA_OF_ASC_NODE":344.6377,"ARG_OF_PERICENTER":62.2807,"MEAN_ANOMALY":297.8318,"EPHEMERIS_TYPE":0,"CLASSIFICATION_TYPE":"U","NORAD_CAT_ID":48379,"ELEMENT_SET_NO":999,"REV_AT_EPOCH":26729,"BSTAR":-8.6692671e-5,"MEAN_MOTION_DOT":-2.924e-5,"MEAN_MOTION_DDOT":0},{"OBJECT_NAME":"SL-19 R\/B","OBJECT_ID":"2011-005B","EPOCH":"2026-03-09T21:50:35.538720","MEAN_MOTION":15.57556472,"ECCENTRICITY":0.01260184,"INCLINATION":99.3438,"RA_OF_ASC_NODE":178.5978,"ARG_OF_PERICENTER":174.8144,"MEAN_ANOMALY":185.4445,"EPHEMERIS_TYPE":0,"CLASSIFICATION_TYPE":"U","NORAD_CAT_ID":37363,"ELEMENT_SET_NO":999,"REV_AT_EPOCH":82354,"BSTAR":0.00054776137,"MEAN_MOTION_DOT":0.00058791,"MEAN_MOTION_DDOT":0}]
